{"type":"Feature","properties":{"MUN":"COMMERCIAL TWP","COUNTY":"CUMBERLAND","MUN_LABEL":"Commercial Township","MUN_TYPE":"Township","NAME":"Commercial Township","GNIS_NAME":"Township of Commercial"},"geometry":{"type":"Polygon","coordinates":[[[-75.0006301,39.2661608],[-75.0008916,39.2659846],[-75.0009009,39.2659783],[-75.0010987,39.2657946],[-75.0013503,39.2655261],[-75.001452,39.2653388],[-75.0015647,39.2651312],[-75.0017963,39.2646096],[-75.0018664,39.2642856],[-75.0019167,39.2637366],[-75.0018797,39.2633625],[-75.0018777,39.2633428],[-75.0018021,39.2628929],[-75.0016733,39.2625979],[-75.0014905,39.2623454],[-75.00129,39.2621493],[-75.0010173,39.2619816],[-75.0006541,39.2618143],[-75.0002006,39.2616756],[-75.0000017,39.261665],[-74.9998574,39.2616256],[-74.9994163,39.2615419],[-74.9989817,39.2614549],[-74.9985783,39.2613743],[-74.9983468,39.2613426],[-74.9978196,39.2612704],[-74.9974871,39.2612249],[-74.9965614,39.2611261],[-74.9963918,39.2611084],[-74.9956137,39.2610274],[-74.9947983,39.2609452],[-74.9946294,39.2609208],[-74.9942251,39.2608621],[-74.9938971,39.2607932],[-74.9937803,39.2607687],[-74.9935855,39.2607278],[-74.9930559,39.260576],[-74.9925699,39.2603726],[-74.9922949,39.2602109],[-74.992194,39.2601516],[-74.9919058,39.2598789],[-74.9918271,39.2597399],[-74.9917715,39.2595932],[-74.99172,39.2594335],[-74.991664,39.2592379],[-74.9916337,39.2590977],[-74.9916128,39.2589214],[-74.991621,39.2587877],[-74.9916546,39.2585959],[-74.9917523,39.2583465],[-74.9918495,39.2581157],[-74.9921326,39.2576694],[-74.9923509,39.2573501],[-74.9924378,39.257223],[-74.9929391,39.2564846],[-74.9933318,39.2559522],[-74.9936707,39.2556084],[-74.9941523,39.2551954],[-74.9948758,39.2547472],[-74.9955997,39.2543504],[-74.9963683,39.2540389],[-74.9970718,39.2538819],[-74.9979416,39.2537705],[-74.9980399,39.2537579],[-74.9992062,39.2536502],[-74.9998745,39.2536148],[-74.9999106,39.2536129],[-75.0000017,39.2536134],[-75.000508,39.2536384],[-75.0011342,39.2536585],[-75.0015743,39.2536566],[-75.0019165,39.25364],[-75.0022097,39.2536083],[-75.002512,39.2535627],[-75.0027544,39.2535066],[-75.0030169,39.2534268],[-75.0032021,39.2533538],[-75.0032792,39.2533235],[-75.0034806,39.2531968],[-75.0034973,39.2531847],[-75.0038228,39.2529514],[-75.0041447,39.2527062],[-75.0043353,39.2524773],[-75.0046159,39.2521064],[-75.0050365,39.2515017],[-75.0049093,39.2514305],[-75.0046929,39.251285],[-75.0045035,39.2511394],[-75.0044685,39.2510791],[-75.0043945,39.2509515],[-75.0042832,39.2504497],[-75.004265,39.250009],[-75.0042106,39.2493994],[-75.0042058,39.2487318],[-75.0042494,39.2479687],[-75.0042669,39.2478843],[-75.0043349,39.2475558],[-75.0044391,39.2470522],[-75.0046081,39.24667],[-75.0046505,39.2466199],[-75.0048514,39.2463828],[-75.005046,39.2461531],[-75.0053632,39.2459228],[-75.0057789,39.2457302],[-75.0063667,39.2455942],[-75.0071758,39.2455334],[-75.007388,39.2455375],[-75.0079854,39.2455489],[-75.0082353,39.2455813],[-75.0086975,39.2456412],[-75.0094103,39.2458288],[-75.0097697,39.2459666],[-75.0103943,39.2462061],[-75.0105115,39.246251],[-75.0113783,39.2465832],[-75.0113829,39.2465848],[-75.0117693,39.2467175],[-75.0120915,39.2468281],[-75.0123225,39.2468977],[-75.0125172,39.2469563],[-75.0129029,39.2470725],[-75.013517,39.2471842],[-75.0142531,39.2472],[-75.0143071,39.2471941],[-75.0147923,39.2471404],[-75.0154537,39.247004],[-75.0158327,39.2468307],[-75.0161142,39.2466881],[-75.0161749,39.2466575],[-75.0163829,39.2465211],[-75.0164679,39.2464654],[-75.0166628,39.2462929],[-75.016665,39.2462903],[-75.0170004,39.2458942],[-75.0170033,39.2458908],[-75.0173435,39.2454506],[-75.0176011,39.2450658],[-75.0178284,39.2446663],[-75.0178477,39.244597],[-75.017924,39.2443225],[-75.017955,39.2442152],[-75.0179957,39.2440742],[-75.0180416,39.2436353],[-75.0179892,39.2431777],[-75.0178633,39.2427396],[-75.0177384,39.2424349],[-75.0175399,39.2421306],[-75.017157,39.2417699],[-75.0167375,39.2414284],[-75.0162939,39.2411442],[-75.0161123,39.2410625],[-75.0155802,39.2408231],[-75.0149653,39.2405969],[-75.0141782,39.2403143],[-75.0134896,39.2400693],[-75.0134877,39.2400683],[-75.0131973,39.2399113],[-75.0129518,39.2397785],[-75.0128247,39.2397098],[-75.0123077,39.2394451],[-75.012061,39.2392554],[-75.01174,39.2389707],[-75.0114183,39.2385715],[-75.0111697,39.2381148],[-75.0110965,39.2379748],[-75.0109707,39.2377342],[-75.0108688,39.2372196],[-75.0108503,39.2370454],[-75.0108161,39.2367239],[-75.010822,39.2366578],[-75.0108401,39.2364515],[-75.0108615,39.2362086],[-75.010996,39.2357983],[-75.0110054,39.2357693],[-75.0112718,39.2352912],[-75.0114662,39.2350424],[-75.011807,39.2346785],[-75.0124171,39.2342561],[-75.0129782,39.233834],[-75.0135522,39.2335072],[-75.0141886,39.2333327],[-75.0147028,39.233216],[-75.0155607,39.2331359],[-75.0162474,39.2331329],[-75.0167628,39.2331687],[-75.0175737,39.233375],[-75.0181401,39.2336776],[-75.0190024,39.2342079],[-75.0198155,39.2347002],[-75.020605,39.2353262],[-75.0207576,39.2354294],[-75.0212213,39.2357431],[-75.0217383,39.2360078],[-75.0223536,39.2362912],[-75.02287,39.2364606],[-75.0234595,39.2365724],[-75.0240119,39.2366462],[-75.0244776,39.2365868],[-75.0249915,39.2364319],[-75.025505,39.2362198],[-75.0256601,39.2361358],[-75.0262867,39.2357966],[-75.0268068,39.2354692],[-75.0271412,39.2352586],[-75.0282637,39.2344905],[-75.028603,39.2342717],[-75.0297527,39.23353],[-75.0308511,39.2328192],[-75.0320699,39.2318218],[-75.032723,39.2312697],[-75.0327279,39.2312656],[-75.0331056,39.2309396],[-75.0335923,39.2304223],[-75.0339815,39.2300009],[-75.0343217,39.2295797],[-75.0346377,39.2292158],[-75.0349767,39.228642],[-75.0351215,39.2283361],[-75.0351683,39.2280307],[-75.0351891,39.2275347],[-75.0351357,39.2269626],[-75.0350341,39.2265053],[-75.0350293,39.2264926],[-75.0348338,39.2259721],[-75.0346598,39.2256677],[-75.0344665,39.2254357],[-75.0342639,39.2251927],[-75.0338448,39.2249085],[-75.0328966,39.2243787],[-75.0318382,39.2238685],[-75.0318254,39.2238624],[-75.0308537,39.2233961],[-75.030025,39.2229844],[-75.0300167,39.2229803],[-75.0287854,39.2222992],[-75.0274059,39.2214661],[-75.0268633,39.2210489],[-75.0266449,39.2208658],[-75.0263204,39.2205936],[-75.0260725,39.2202513],[-75.0258729,39.2197944],[-75.0259177,39.2192219],[-75.0262542,39.2183048],[-75.0263819,39.2180692],[-75.0265605,39.2177398],[-75.0266896,39.2175017],[-75.0269242,39.2171458],[-75.0271228,39.2168764],[-75.0273615,39.2165881],[-75.0275768,39.2163998],[-75.0276406,39.2163478],[-75.0277059,39.216297],[-75.0277728,39.2162474],[-75.0278411,39.216199],[-75.0279108,39.2161518],[-75.0279819,39.2161059],[-75.0280544,39.2160612],[-75.0281282,39.2160179],[-75.0282033,39.2159759],[-75.0282796,39.2159353],[-75.0283571,39.215896],[-75.0284357,39.2158582],[-75.0285155,39.2158217],[-75.0285963,39.2157867],[-75.0286781,39.2157532],[-75.0287609,39.2157211],[-75.0288447,39.2156906],[-75.0289294,39.2156615],[-75.0290148,39.215634],[-75.0291011,39.215608],[-75.0291882,39.2155836],[-75.0292759,39.2155607],[-75.0293644,39.2155394],[-75.0294534,39.2155197],[-75.029543,39.2155016],[-75.0296331,39.2154851],[-75.0297237,39.2154703],[-75.0298147,39.215457],[-75.029906,39.2154454],[-75.0299977,39.2154355],[-75.0300897,39.2154272],[-75.0301819,39.2154205],[-75.0302742,39.2154155],[-75.0303667,39.2154122],[-75.0304593,39.2154105],[-75.0305518,39.2154105],[-75.0306444,39.2154121],[-75.0307369,39.2154154],[-75.0308293,39.2154203],[-75.0309214,39.2154269],[-75.0310134,39.2154352],[-75.0311051,39.2154451],[-75.0311965,39.2154566],[-75.0312875,39.2154698],[-75.0313781,39.2154846],[-75.0314682,39.2155011],[-75.0315578,39.2155191],[-75.0316469,39.2155387],[-75.0317353,39.21556],[-75.0318231,39.2155828],[-75.0319102,39.2156072],[-75.0319965,39.2156331],[-75.032082,39.2156606],[-75.0321667,39.2156896],[-75.0322505,39.2157201],[-75.0323333,39.2157521],[-75.0324152,39.2157856],[-75.0324961,39.2158205],[-75.0325758,39.2158569],[-75.0326545,39.2158947],[-75.0327321,39.2159339],[-75.0328084,39.2159745],[-75.0328835,39.2160165],[-75.0329573,39.2160598],[-75.0330299,39.2161043],[-75.033101,39.2161502],[-75.0331708,39.2161974],[-75.0332392,39.2162458],[-75.0333116,39.2163174],[-75.0333854,39.2164074],[-75.0334609,39.2164966],[-75.0335383,39.2165849],[-75.0336173,39.2166723],[-75.0336981,39.2167586],[-75.0337806,39.216844],[-75.0338648,39.2169285],[-75.0339507,39.2170118],[-75.0340383,39.2170942],[-75.0341274,39.2171755],[-75.0342182,39.2172557],[-75.0343106,39.2173348],[-75.0344045,39.2174128],[-75.0345,39.2174897],[-75.034597,39.2175654],[-75.0346955,39.21764],[-75.0347955,39.2177133],[-75.0348969,39.2177855],[-75.0349998,39.2178564],[-75.035104,39.2179261],[-75.0352097,39.2179945],[-75.0353167,39.2180617],[-75.035425,39.2181275],[-75.0355346,39.2181921],[-75.0356455,39.2182553],[-75.0357576,39.2183172],[-75.035871,39.2183778],[-75.0359855,39.218437],[-75.0361013,39.2184948],[-75.0362181,39.2185512],[-75.0363361,39.2186062],[-75.0364552,39.2186598],[-75.0365753,39.218712],[-75.0366964,39.2187627],[-75.0368186,39.218812],[-75.0369417,39.2188598],[-75.0370657,39.2189061],[-75.0371907,39.2189509],[-75.0373165,39.2189942],[-75.0374432,39.219036],[-75.0375707,39.2190763],[-75.037699,39.2191151],[-75.037828,39.2191523],[-75.0379578,39.219188],[-75.0380882,39.2192221],[-75.0382194,39.2192546],[-75.0383512,39.2192856],[-75.0384835,39.219315],[-75.0386165,39.2193428],[-75.0387499,39.219369],[-75.0388839,39.2193936],[-75.0390184,39.2194166],[-75.0391533,39.2194379],[-75.0392886,39.2194577],[-75.0394243,39.2194759],[-75.0395603,39.2194924],[-75.0396967,39.2195072],[-75.0398333,39.2195205],[-75.0399836,39.2195103],[-75.0401336,39.2194985],[-75.0402835,39.2194851],[-75.040433,39.2194701],[-75.0405823,39.2194534],[-75.0407313,39.2194351],[-75.0408799,39.2194152],[-75.0410282,39.2193937],[-75.041176,39.2193706],[-75.0413234,39.2193458],[-75.0414281,39.219306],[-75.0415318,39.2192647],[-75.0416345,39.2192219],[-75.0417362,39.2191776],[-75.0418368,39.2191319],[-75.0419362,39.2190847],[-75.0420345,39.2190361],[-75.0421317,39.2189861],[-75.0422276,39.2189347],[-75.0423222,39.2188819],[-75.0424156,39.2188277],[-75.0425077,39.2187723],[-75.0425984,39.2187155],[-75.0426877,39.2186574],[-75.0427756,39.218598],[-75.0428621,39.2185374],[-75.0429471,39.2184755],[-75.0430306,39.2184124],[-75.0431125,39.2183481],[-75.043193,39.2182827],[-75.0432718,39.2182161],[-75.043349,39.2181484],[-75.0434246,39.2180796],[-75.0434985,39.2180097],[-75.0435707,39.2179387],[-75.0436412,39.2178667],[-75.0437099,39.2177937],[-75.0437769,39.2177198],[-75.0438421,39.2176448],[-75.0439055,39.217569],[-75.043967,39.2174922],[-75.0440267,39.2174146],[-75.0440846,39.2173362],[-75.0441405,39.2172569],[-75.0441945,39.2171768],[-75.0442466,39.2170959],[-75.0442967,39.2170144],[-75.0443449,39.2169321],[-75.044391,39.2168491],[-75.0444352,39.2167655],[-75.0444774,39.2166812],[-75.0445175,39.2165964],[-75.0445556,39.216511],[-75.0445916,39.216425],[-75.0446255,39.2163386],[-75.0446574,39.2162517],[-75.0446872,39.2161643],[-75.0447148,39.2160765],[-75.0447404,39.2159883],[-75.0447638,39.2158998],[-75.0447851,39.215811],[-75.0448043,39.2157219],[-75.0448213,39.2156325],[-75.0448362,39.2155428],[-75.0448489,39.215453],[-75.0448594,39.215363],[-75.0448678,39.2152729],[-75.0448741,39.2151827],[-75.0448781,39.2150924],[-75.04488,39.215002],[-75.0448797,39.2149117],[-75.0448772,39.2148213],[-75.0448726,39.214731],[-75.0472023,39.2149805],[-75.0490016,39.2151732],[-75.0490045,39.2151742],[-75.0490997,39.2152026],[-75.0492596,39.2152721],[-75.0493014,39.2152932],[-75.0493277,39.2153125],[-75.049365,39.2153697],[-75.0493832,39.2154094],[-75.0494167,39.2155832],[-75.049441,39.2156497],[-75.0494531,39.215682],[-75.0494957,39.2157337],[-75.0495206,39.2157413],[-75.0495632,39.2157442],[-75.0496118,39.2157424],[-75.0496219,39.2157392],[-75.0496271,39.2157311],[-75.0496298,39.2157061],[-75.0496326,39.2156682],[-75.0496456,39.215657],[-75.0496598,39.2156468],[-75.049674,39.2156458],[-75.0496872,39.215654],[-75.0497028,39.2156752],[-75.0497171,39.2156826],[-75.0497469,39.2156898],[-75.049779,39.2156897],[-75.0498254,39.2156913],[-75.0498635,39.2156995],[-75.0498874,39.2157114],[-75.0499048,39.2157236],[-75.0499481,39.2157314],[-75.0499885,39.2157233],[-75.0500248,39.2157042],[-75.0500409,39.2156916],[-75.0500487,39.2156496],[-75.0500557,39.2156384],[-75.050064,39.2156347],[-75.0501034,39.2156465],[-75.0501439,39.2156639],[-75.0501536,39.2156768],[-75.0501561,39.2157018],[-75.0501634,39.2157147],[-75.050185,39.2157224],[-75.0502195,39.2157254],[-75.0502458,39.2157221],[-75.050258,39.2157205],[-75.0502721,39.2157125],[-75.0502742,39.2157087],[-75.0503001,39.215662],[-75.0505122,39.2154549],[-75.0505616,39.2154243],[-75.0506497,39.2154164],[-75.0506861,39.2154162],[-75.050829,39.2154529],[-75.0508354,39.2154545],[-75.0509569,39.215454],[-75.0510055,39.2154506],[-75.0510541,39.215444],[-75.0511269,39.2154216],[-75.0512601,39.2153548],[-75.0512899,39.2153527],[-75.0513087,39.2153514],[-75.051566,39.2153597],[-75.0518495,39.2153331],[-75.0520799,39.2152627],[-75.0521082,39.2152499],[-75.0521771,39.2152559],[-75.0521893,39.2152558],[-75.0522299,39.2152745],[-75.0523357,39.2153245],[-75.0525427,39.2153708],[-75.0526807,39.2153922],[-75.0528346,39.2153915],[-75.0530938,39.2153713],[-75.0534786,39.2153474],[-75.0538675,39.2153361],[-75.0539282,39.2153201],[-75.0539646,39.2153073],[-75.0539807,39.2152978],[-75.0539887,39.2152883],[-75.0540008,39.2152787],[-75.054029,39.2152597],[-75.0540613,39.2152469],[-75.0540775,39.2152469],[-75.0541141,39.2152562],[-75.0541506,39.2152654],[-75.054175,39.2152779],[-75.0542117,39.215303],[-75.0542605,39.2153216],[-75.0543578,39.2153275],[-75.0548643,39.2153314],[-75.0552127,39.2153108],[-75.0556621,39.2152614],[-75.0560223,39.2152124],[-75.0563667,39.2152013],[-75.0566261,39.2152095],[-75.0569952,39.2152518],[-75.0570923,39.2152325],[-75.0572297,39.2151814],[-75.0573347,39.2151431],[-75.0573428,39.2151367],[-75.0577241,39.2151916],[-75.0582029,39.2152776],[-75.0586414,39.2153764],[-75.0589815,39.2153432],[-75.0592079,39.2152791],[-75.0598142,39.215087],[-75.0603442,39.2149773],[-75.0620668,39.2147799],[-75.0625016,39.2148277],[-75.062973,39.2148735],[-75.0631671,39.2148839],[-75.0635351,39.214868],[-75.0636127,39.2148714],[-75.0637645,39.2148867],[-75.0639417,39.2149038],[-75.0640121,39.2149091],[-75.0640933,39.2149087],[-75.064189,39.2148979],[-75.064281,39.2148738],[-75.0643759,39.2148328],[-75.0644411,39.2147995],[-75.0645123,39.21475],[-75.0646261,39.2146659],[-75.0646546,39.2146512],[-75.0646945,39.2146426],[-75.0647455,39.2146395],[-75.0648364,39.214639],[-75.0648862,39.2146445],[-75.0649948,39.2146543],[-75.0653323,39.2146263],[-75.0653881,39.2146203],[-75.0654559,39.2146115],[-75.0655353,39.2146064],[-75.0655913,39.2146231],[-75.0657205,39.2147055],[-75.0657862,39.214741],[-75.0658811,39.2147689],[-75.0659977,39.2147891],[-75.0661165,39.2147904],[-75.0661989,39.2147843],[-75.0664507,39.2147208],[-75.0664515,39.2147207],[-75.0665101,39.2147056],[-75.0666408,39.2146803],[-75.0667354,39.2146798],[-75.0668422,39.2146944],[-75.0669176,39.2147223],[-75.0669543,39.2147542],[-75.0669764,39.2147937],[-75.0670334,39.2149887],[-75.0670432,39.2150062],[-75.0670668,39.2150355],[-75.0671054,39.2150585],[-75.0671523,39.215082],[-75.0671741,39.2150871],[-75.067242,39.2150906],[-75.0673294,39.2150812],[-75.0673825,39.2150691],[-75.0674226,39.2150507],[-75.0674501,39.2150311],[-75.0674738,39.2150128],[-75.0674886,39.2149856],[-75.0674955,39.2149478],[-75.0674904,39.2149101],[-75.0674841,39.21489],[-75.0674775,39.2148788],[-75.0673657,39.21479],[-75.0673315,39.214758],[-75.0672997,39.2147224],[-75.067289,39.2147015],[-75.0672843,39.214669],[-75.0672891,39.2146391],[-75.0673045,39.2146213],[-75.06732,39.2146108],[-75.0673495,39.2146046],[-75.0673857,39.2146088],[-75.0673967,39.2146118],[-75.0674464,39.2146405],[-75.0675292,39.2146816],[-75.0675632,39.2146946],[-75.0675998,39.2146963],[-75.0676,39.2146963],[-75.0676641,39.2146909],[-75.0678603,39.2146617],[-75.0679364,39.2146533],[-75.06799,39.214653],[-75.0680507,39.2146594],[-75.0681026,39.2146646],[-75.0681459,39.2146644],[-75.0681701,39.2146602],[-75.0682012,39.2146479],[-75.0682357,39.2146437],[-75.0682773,39.2146435],[-75.0683344,39.2146432],[-75.0683949,39.2146389],[-75.0684572,39.2146305],[-75.0685236,39.2146033],[-75.0685753,39.2145774],[-75.0686219,39.2145651],[-75.0686617,39.2145635],[-75.0687102,39.2145687],[-75.0687449,39.2145739],[-75.068783,39.2145764],[-75.0688159,39.2145763],[-75.0691612,39.2145732],[-75.0693724,39.2145843],[-75.0694729,39.2145946],[-75.0695812,39.2146129],[-75.0696435,39.2146126],[-75.0696851,39.2146124],[-75.0697075,39.2146083],[-75.0697333,39.2145893],[-75.0697522,39.2145676],[-75.069778,39.2145473],[-75.0698229,39.2145377],[-75.069906,39.2145373],[-75.0699667,39.2145518],[-75.0700942,39.2145862],[-75.070134,39.2145887],[-75.07016,39.2145885],[-75.0701824,39.214583],[-75.0702689,39.2145665],[-75.0703589,39.214566],[-75.0703882,39.2145591],[-75.0704263,39.214559],[-75.0704817,39.2145627],[-75.0705285,39.2145733],[-75.0705805,39.2145744],[-75.0706289,39.2145728],[-75.0707578,39.2145627],[-75.0707614,39.2145623],[-75.0708339,39.2145543],[-75.0708962,39.2145513],[-75.0710121,39.2145507],[-75.0712607,39.214576],[-75.0712849,39.2145759],[-75.0713001,39.214572],[-75.071317,39.2145663],[-75.0713618,39.2145391],[-75.0713739,39.214541],[-75.0713747,39.2145422],[-75.0713788,39.2145422],[-75.0714055,39.2145615],[-75.0714354,39.214577],[-75.0714868,39.2145904],[-75.0715837,39.2146031],[-75.0716114,39.214603],[-75.0716408,39.2146028],[-75.0716892,39.2145932],[-75.0717358,39.2145741],[-75.0717669,39.2145645],[-75.0717859,39.2145604],[-75.0718119,39.2145602],[-75.0718396,39.2145709],[-75.0718657,39.2145842],[-75.0718866,39.2145962],[-75.0719074,39.2146056],[-75.0719646,39.2146174],[-75.07204,39.2146251],[-75.0722772,39.214632],[-75.072593,39.2146114],[-75.07263,39.2146049],[-75.072643,39.2146006],[-75.0726557,39.2145986],[-75.0726749,39.2145872],[-75.0727433,39.2145106],[-75.0735733,39.214052],[-75.073695,39.2140313],[-75.0739769,39.2139764],[-75.0741899,39.2139167],[-75.0746897,39.2137532],[-75.0752388,39.2135563],[-75.0753293,39.2135159],[-75.0753651,39.2134904],[-75.0754101,39.2134395],[-75.0754355,39.2134079],[-75.075461,39.2133901],[-75.0754875,39.2133769],[-75.0755142,39.2133714],[-75.0756024,39.2133664],[-75.0757203,39.2133581],[-75.0757933,39.213347],[-75.0758514,39.2133344],[-75.0759247,39.2133087],[-75.0760516,39.213259],[-75.0760782,39.2132504],[-75.0760915,39.2132486],[-75.0761078,39.213251],[-75.0761226,39.2132563],[-75.0761425,39.2132716],[-75.0761421,39.2132768],[-75.0761406,39.2132846],[-75.076124,39.2133001],[-75.0760846,39.2133187],[-75.0760286,39.213342],[-75.0760109,39.2133567],[-75.0760022,39.2133682],[-75.0759984,39.2133913],[-75.0760033,39.2134481],[-75.0760085,39.2134788],[-75.0760067,39.2135026],[-75.0759997,39.2135143],[-75.0759911,39.2135265],[-75.0759868,39.2135312],[-75.0759609,39.2135503],[-75.0759453,39.2135592],[-75.0758078,39.2136203],[-75.0754469,39.2137741],[-75.0754155,39.2137942],[-75.0754097,39.2138088],[-75.0754108,39.2138226],[-75.0754197,39.2138325],[-75.0754316,39.2138371],[-75.0754681,39.2138361],[-75.0755085,39.2138313],[-75.075642,39.2138007],[-75.0758223,39.2137568],[-75.0760043,39.213693],[-75.0761739,39.2136146],[-75.0763857,39.2135038],[-75.0764398,39.2134805],[-75.0766185,39.2134266],[-75.0769677,39.2133473],[-75.0776137,39.2132359],[-75.077767,39.2132144],[-75.0778262,39.2132141],[-75.0778558,39.2132147],[-75.0778953,39.2132199],[-75.077921,39.2132275],[-75.0779477,39.2132327],[-75.0779662,39.2132346],[-75.0779941,39.2132325],[-75.0780246,39.2132231],[-75.0780806,39.2131929],[-75.0781208,39.2131558],[-75.0781315,39.2131361],[-75.0781611,39.2130812],[-75.0781706,39.2130381],[-75.0781704,39.2130059],[-75.0781641,39.2129766],[-75.0781321,39.2129093],[-75.078112,39.2128774],[-75.0780997,39.212868],[-75.0780019,39.2128096],[-75.0779913,39.2127968],[-75.0779913,39.2127887],[-75.0779912,39.2127839],[-75.0779981,39.2127785],[-75.0780094,39.2127723],[-75.0780268,39.2127723],[-75.0780877,39.2127814],[-75.0781686,39.2127909],[-75.0781943,39.2127923],[-75.0782618,39.2128022],[-75.0782714,39.2128076],[-75.0782794,39.2128204],[-75.0782914,39.2128456],[-75.0783006,39.2128609],[-75.0783076,39.2128676],[-75.0783181,39.2128716],[-75.0783189,39.2128709],[-75.0783329,39.2128749],[-75.0783546,39.2128775],[-75.0784003,39.2128773],[-75.078529,39.2128765],[-75.0786611,39.2128623],[-75.0787244,39.2128556],[-75.0788485,39.2128301],[-75.0789196,39.2128098],[-75.0789884,39.2127803],[-75.0791421,39.2126885],[-75.0792186,39.2126555],[-75.0792915,39.2126281],[-75.0793444,39.2126164],[-75.079412,39.2126118],[-75.0794613,39.2126059],[-75.0796741,39.2125227],[-75.0802969,39.2122546],[-75.0805049,39.2121614],[-75.0807781,39.2120275],[-75.0808135,39.2120106],[-75.0808438,39.2120001],[-75.0808874,39.211993],[-75.0809526,39.2119904],[-75.0810614,39.2119898],[-75.0810962,39.2119873],[-75.0811154,39.2119826],[-75.0811604,39.2119605],[-75.0811899,39.2119535],[-75.0812162,39.2119505],[-75.0812503,39.211952],[-75.0812873,39.2119587],[-75.0813282,39.2119689],[-75.0813556,39.2119751],[-75.08142,39.2119765],[-75.0814339,39.2119789],[-75.0814564,39.2119827],[-75.0815589,39.2120071],[-75.0816511,39.2120203],[-75.0816829,39.2120178],[-75.0816964,39.2120139],[-75.0817131,39.2120067],[-75.0817359,39.2119876],[-75.0817439,39.2119751],[-75.0817483,39.2119616],[-75.0817489,39.2119527],[-75.0817489,39.211948],[-75.0817481,39.2119368],[-75.081747,39.2119298],[-75.0817355,39.2119095],[-75.0816959,39.2118488],[-75.0816936,39.2118404],[-75.0816935,39.2118242],[-75.0816978,39.2118127],[-75.0817008,39.2118089],[-75.0817133,39.2118057],[-75.0817318,39.2118033],[-75.0817525,39.211798],[-75.0817635,39.2117882],[-75.0817836,39.2117518],[-75.0817976,39.2117385],[-75.0818045,39.2117333],[-75.0818175,39.2117297],[-75.0818345,39.2117273],[-75.081853,39.2117278],[-75.0819054,39.2117422],[-75.0819211,39.2117456],[-75.0819768,39.2117499],[-75.0820528,39.2117539],[-75.082092,39.2117571],[-75.0821299,39.2117679],[-75.0822096,39.2118222],[-75.0823016,39.2118897],[-75.0823507,39.211924],[-75.0823752,39.2119337],[-75.0824042,39.2119422],[-75.0824466,39.2119639],[-75.0824705,39.2119891],[-75.0825049,39.2120304],[-75.0825239,39.2120453],[-75.0825476,39.2120521],[-75.0825773,39.2120519],[-75.0826083,39.2120495],[-75.0827266,39.2120264],[-75.0827562,39.2120263],[-75.0827829,39.2120285],[-75.0828081,39.2120352],[-75.0828275,39.2120495],[-75.0828447,39.2120719],[-75.0828649,39.2120966],[-75.0828835,39.2121103],[-75.0829051,39.2121177],[-75.0829251,39.2121188],[-75.082995,39.212115],[-75.0831651,39.2120876],[-75.0831999,39.2120845],[-75.0832354,39.2120844],[-75.0832591,39.2120848],[-75.0855292,39.2121583],[-75.0855583,39.2121591],[-75.0856027,39.2121742],[-75.0856475,39.2121946],[-75.0856843,39.2122019],[-75.0857216,39.2122035],[-75.0857565,39.2122033],[-75.0857913,39.212195],[-75.0858238,39.2121813],[-75.0858503,39.2121621],[-75.0858827,39.2121375],[-75.0859036,39.2121347],[-75.0859304,39.21214],[-75.085948,39.2121526],[-75.085968,39.2121796],[-75.0859856,39.2121995],[-75.0860148,39.2122156],[-75.0860481,39.2122299],[-75.0860842,39.212237],[-75.0861215,39.2122395],[-75.0861692,39.2122384],[-75.0862308,39.2122353],[-75.0862702,39.2122234],[-75.0862934,39.2122106],[-75.0863423,39.2121488],[-75.0863608,39.2121297],[-75.0863828,39.2121196],[-75.0864177,39.212114],[-75.086463,39.2121138],[-75.0864944,39.2121136],[-75.0865607,39.2121133],[-75.0865991,39.2121131],[-75.0866421,39.2121084],[-75.0866862,39.2120973],[-75.0867176,39.2120845],[-75.0867517,39.2120644],[-75.0867748,39.2120434],[-75.0868049,39.212027],[-75.0868397,39.2120178],[-75.0868688,39.2120176],[-75.0869037,39.2120175],[-75.0869258,39.2120146],[-75.0869478,39.2120064],[-75.086964,39.2119909],[-75.0870107,39.21195],[-75.087035,39.2119335],[-75.0870629,39.2119225],[-75.0870989,39.2119133],[-75.0871524,39.2119121],[-75.0871954,39.2119092],[-75.0872197,39.2119],[-75.0872347,39.2118855],[-75.0872438,39.2118619],[-75.0872553,39.211841],[-75.0872773,39.2118255],[-75.0873764,39.2117816],[-75.0876157,39.2116709],[-75.0877912,39.2115795],[-75.0878154,39.2115604],[-75.0878397,39.2115421],[-75.087871,39.2115311],[-75.0879001,39.211531],[-75.0879269,39.2115308],[-75.0879572,39.2115415],[-75.0879736,39.211555],[-75.0879796,39.2115713],[-75.0879925,39.2115911],[-75.0880042,39.2115983],[-75.0880205,39.2116],[-75.0880461,39.2115999],[-75.0880612,39.2115962],[-75.0880809,39.2115835],[-75.0880994,39.2115716],[-75.0884427,39.2114477],[-75.0885831,39.2114035],[-75.0886505,39.2113978],[-75.088704,39.2113975],[-75.0887576,39.2114063],[-75.088795,39.211426],[-75.0888301,39.2114475],[-75.0888815,39.2114726],[-75.0889211,39.2114815],[-75.0889676,39.2114812],[-75.0890001,39.2114756],[-75.089051,39.2114401],[-75.0890729,39.2114119],[-75.0890762,39.2113929],[-75.0890696,39.2113658],[-75.0890567,39.2113532],[-75.0890193,39.2113353],[-75.0890053,39.2113227],[-75.0890017,39.2113082],[-75.089005,39.2112946],[-75.0890189,39.2112837],[-75.0890398,39.2112754],[-75.08907,39.2112753],[-75.0891108,39.2112787],[-75.0892494,39.2113015],[-75.0892761,39.2113014],[-75.0892982,39.2112968],[-75.0893167,39.2112858],[-75.0893866,39.2112212],[-75.0894108,39.2111966],[-75.0894305,39.2111848],[-75.0894776,39.2111818],[-75.0894997,39.2111817],[-75.0895265,39.211187],[-75.0895544,39.2111869],[-75.0895846,39.211184],[-75.0896421,39.2111728],[-75.0896746,39.2111691],[-75.0897095,39.2111689],[-75.089741,39.2111714],[-75.0897654,39.2111767],[-75.0897934,39.2111766],[-75.0898294,39.2111719],[-75.08987,39.2111626],[-75.0899946,39.2111023],[-75.0900258,39.2110831],[-75.0900652,39.2110648],[-75.0901117,39.2110582],[-75.0901559,39.211058],[-75.0902421,39.2110657],[-75.090291,39.2110745],[-75.0903108,39.2110817],[-75.0903329,39.2110834],[-75.0903608,39.2110814],[-75.0903771,39.2110777],[-75.0903973,39.2110622],[-75.0904146,39.2110422],[-75.0904378,39.2110294],[-75.0904599,39.2110293],[-75.0904808,39.2110337],[-75.0905018,39.2110418],[-75.0905263,39.2110471],[-75.0905542,39.2110469],[-75.0905786,39.2110423],[-75.0905925,39.2110314],[-75.0905947,39.2110151],[-75.0905887,39.210997],[-75.0905781,39.2109808],[-75.0905698,39.2109627],[-75.0905755,39.2109464],[-75.0905917,39.2109327],[-75.090623,39.2109262],[-75.0906591,39.2109279],[-75.0907011,39.2109394],[-75.0907712,39.210978],[-75.0907923,39.2109951],[-75.0908158,39.2110248],[-75.0908195,39.2110537],[-75.0908141,39.2110954],[-75.0908161,39.2111271],[-75.0908293,39.2111759],[-75.0908447,39.2112084],[-75.0908682,39.2112381],[-75.090894,39.2112606],[-75.0909185,39.2112768],[-75.0909606,39.2112947],[-75.0910061,39.2113098],[-75.0910893,39.2113221],[-75.0911254,39.2113237],[-75.0911883,39.211327],[-75.0912454,39.2113403],[-75.0913491,39.2113669],[-75.091405,39.2113739],[-75.0914644,39.2113799],[-75.0915418,39.2113831],[-75.0915767,39.2113829],[-75.0916139,39.2113828],[-75.0916453,39.211379],[-75.0916934,39.2113625],[-75.0917189,39.2113487],[-75.0917421,39.2113405],[-75.0917665,39.2113404],[-75.0917875,39.2113475],[-75.0918016,39.2113592],[-75.0918076,39.2113818],[-75.0918159,39.2114016],[-75.0918276,39.2114115],[-75.0918439,39.2114142],[-75.0918649,39.2114141],[-75.0918927,39.2114022],[-75.0919309,39.2113775],[-75.0920645,39.2112891],[-75.0920923,39.2112753],[-75.0921283,39.2112634],[-75.092169,39.2112614],[-75.0922097,39.2112612],[-75.0922563,39.2112646],[-75.0922993,39.2112707],[-75.0923343,39.2112732],[-75.0923866,39.2112729],[-75.0925255,39.2112614],[-75.0925709,39.2112602],[-75.0926093,39.2112619],[-75.0926384,39.2112708],[-75.0926619,39.2112906],[-75.0926714,39.2113158],[-75.0926716,39.2113394],[-75.0926741,39.2113656],[-75.0926836,39.2113809],[-75.0926941,39.2113881],[-75.0927104,39.2113944],[-75.0927337,39.2113961],[-75.0928658,39.2113999],[-75.0930205,39.2114046],[-75.093219,39.2114144],[-75.09329,39.2114222],[-75.0933448,39.2114301],[-75.0933821,39.2114407],[-75.0934334,39.211455],[-75.0934754,39.2114755],[-75.0935057,39.2114835],[-75.0935407,39.2114852],[-75.0935802,39.2114832],[-75.0937027,39.2114545],[-75.0937434,39.2114479],[-75.0937829,39.2114486],[-75.0938108,39.2114521],[-75.0938423,39.2114556],[-75.0938749,39.2114554],[-75.0939463,39.2114469],[-75.0940149,39.2114339],[-75.094066,39.21143],[-75.094123,39.2114315],[-75.0941801,39.2114403],[-75.0942209,39.2114491],[-75.0942535,39.2114535],[-75.0942837,39.2114524],[-75.094314,39.2114505],[-75.0943987,39.211431],[-75.0944347,39.2114263],[-75.0944895,39.2114306],[-75.0945512,39.2114438],[-75.0945968,39.2114617],[-75.0946388,39.2114814],[-75.0946703,39.2114903],[-75.0947017,39.2114919],[-75.0947447,39.2114899],[-75.094893,39.2114774],[-75.0949197,39.2114772],[-75.0949558,39.2114807],[-75.0949955,39.211494],[-75.0950224,39.2115111],[-75.0950516,39.2115336],[-75.0950738,39.2115416],[-75.0951373,39.211553],[-75.0951886,39.2115646],[-75.0952259,39.2115788],[-75.0952587,39.2116013],[-75.0952857,39.2116319],[-75.0953012,39.2116744],[-75.0953097,39.2117187],[-75.0953242,39.211782],[-75.0953516,39.2118597],[-75.0953895,39.2119373],[-75.0954108,39.2119824],[-75.0954462,39.2120438],[-75.0954697,39.2120699],[-75.0954966,39.2120897],[-75.0955299,39.212104],[-75.0955545,39.2121165],[-75.0955756,39.2121373],[-75.0955839,39.2121598],[-75.0955935,39.2121924],[-75.0956053,39.2122113],[-75.0956275,39.2122239],[-75.0956496,39.2122292],[-75.0956741,39.2122291],[-75.0957101,39.2122207],[-75.0958248,39.2121658],[-75.09587,39.2121457],[-75.0960282,39.212077],[-75.096092,39.2120541],[-75.0961361,39.2120448],[-75.0961791,39.2120446],[-75.0962246,39.2120507],[-75.096333,39.21208],[-75.0963973,39.2121149],[-75.0965027,39.2121959],[-75.0965308,39.212221],[-75.0965567,39.212258],[-75.0965709,39.2122878],[-75.096584,39.2123249],[-75.0965924,39.2123538],[-75.096616,39.2123853],[-75.0966382,39.2124042],[-75.0966744,39.2124185],[-75.0967,39.2124229],[-75.0967995,39.2124197],[-75.0968617,39.2124221],[-75.096913,39.2124291],[-75.0969725,39.2124469],[-75.097053,39.2124817],[-75.0970916,39.2125024],[-75.0971138,39.2125176],[-75.0971907,39.2126023],[-75.0972165,39.2126203],[-75.0972515,39.2126301],[-75.0972817,39.2126317],[-75.0973119,39.2126288],[-75.0973479,39.2126169],[-75.097385,39.2126058],[-75.0974164,39.212603],[-75.0974548,39.2126055],[-75.0974852,39.2126144],[-75.0975145,39.2126405],[-75.097548,39.2126801],[-75.0975703,39.2127099],[-75.0975856,39.2127342],[-75.0976091,39.2127558],[-75.0976406,39.2127719],[-75.0976791,39.2127853],[-75.0977188,39.2127933],[-75.0977537,39.2128003],[-75.0977923,39.2128209],[-75.0978169,39.2128407],[-75.0978637,39.2128722],[-75.0978952,39.2128802],[-75.097929,39.2128881],[-75.0979641,39.2129106],[-75.0980076,39.2129655],[-75.0980281,39.2129817],[-75.098063,39.2129924],[-75.0980852,39.2129923],[-75.0981742,39.2129831],[-75.0982341,39.2129806],[-75.098294,39.2129825],[-75.0983526,39.212992],[-75.0984155,39.2130165],[-75.0984757,39.213052],[-75.0985499,39.213096],[-75.098582,39.2131099],[-75.0986364,39.2131173],[-75.0986893,39.213117],[-75.0988347,39.2130913],[-75.0989126,39.2130823],[-75.098978,39.2130819],[-75.099079,39.2130857],[-75.0992694,39.2131129],[-75.0992973,39.2131258],[-75.0993086,39.2131344],[-75.0993172,39.2131669],[-75.0993272,39.2132752],[-75.0993357,39.2132968],[-75.0993483,39.2133097],[-75.0993777,39.2133204],[-75.099407,39.2133213],[-75.0994446,39.2133266],[-75.0994656,39.2133427],[-75.0994714,39.2133633],[-75.099473,39.2133925],[-75.0994845,39.2134347],[-75.0995029,39.2134628],[-75.0995254,39.2134908],[-75.0995548,39.2135145],[-75.0995828,39.2135328],[-75.0996094,39.2135467],[-75.099636,39.2135629],[-75.0996845,39.2136157],[-75.099732,39.213635],[-75.0997752,39.213638],[-75.0998156,39.2136345],[-75.0999016,39.2135994],[-75.0999434,39.2135894],[-75.0999712,39.2135893],[-75.1000061,39.2135978],[-75.1000355,39.2136193],[-75.1000862,39.2136862],[-75.1001327,39.213738],[-75.1001635,39.2137606],[-75.1001886,39.213767],[-75.100227,39.2137722],[-75.1002785,39.213773],[-75.1003245,39.2137738],[-75.1003648,39.2137736],[-75.1038272,39.2138478],[-75.1037795,39.2146846],[-75.1037517,39.2151733],[-75.1037928,39.2159736],[-75.1038301,39.2163203],[-75.1039311,39.2165129],[-75.1039347,39.2165199],[-75.104108,39.2167192],[-75.1042633,39.2168384],[-75.1044699,39.2169308],[-75.1048138,39.2170224],[-75.1051401,39.217074],[-75.1056208,39.2171249],[-75.1056475,39.217127],[-75.106436,39.2171874],[-75.1065285,39.2171957],[-75.1074144,39.2172757],[-75.1082382,39.2173381],[-75.1084506,39.2173692],[-75.1089423,39.2174412],[-75.1089807,39.2174512],[-75.1094409,39.217572],[-75.1097338,39.2177305],[-75.1099586,39.2179428],[-75.1101148,39.2181555],[-75.1102544,39.2184349],[-75.1103251,39.2186747],[-75.1103623,39.2190081],[-75.1103528,39.2191932],[-75.1103403,39.2194351],[-75.1103144,39.2199014],[-75.1103106,39.219969],[-75.1103487,39.2204091],[-75.1103683,39.2206891],[-75.1103869,39.2207543],[-75.1104045,39.2208062],[-75.1104283,39.2208594],[-75.110456,39.2209155],[-75.1106465,39.2211146],[-75.1107847,39.221234],[-75.110957,39.2213265],[-75.111198,39.2214186],[-75.1114519,39.2214436],[-75.1114555,39.2214439],[-75.1117471,39.2214424],[-75.1121122,39.2214154],[-75.1123299,39.2213993],[-75.1128954,39.221343],[-75.1134265,39.2212735],[-75.1135928,39.2212664],[-75.1137866,39.2212582],[-75.1141468,39.2212563],[-75.1146276,39.2213205],[-75.1149716,39.2214254],[-75.1152128,39.2215442],[-75.1154543,39.2217031],[-75.1156808,39.2218769],[-75.1157949,39.2219644],[-75.1157996,39.2219681],[-75.115862,39.2220249],[-75.1160763,39.2222201],[-75.1161638,39.2224198],[-75.116187,39.2225567],[-75.1162,39.2226331],[-75.116167,39.22278],[-75.1160866,39.2228858],[-75.1160652,39.222914],[-75.1159118,39.2230215],[-75.1156895,39.2231027],[-75.1154326,39.2231441],[-75.1148887,39.2231983],[-75.1140748,39.2232119],[-75.1135023,39.2232537],[-75.1131633,39.2233215],[-75.1131044,39.2233333],[-75.1129334,39.2234114],[-75.1128462,39.2234602],[-75.1127821,39.2235093],[-75.112708,39.2235872],[-75.1126509,39.2236799],[-75.1126101,39.2237815],[-75.112594,39.2238592],[-75.1125865,39.2239366],[-75.1125954,39.2240211],[-75.1126128,39.2240915],[-75.1127066,39.2242136],[-75.1127766,39.2242814],[-75.112864,39.2243421],[-75.1133031,39.224518],[-75.113389,39.2245524],[-75.1139648,39.2248788],[-75.1143542,39.2250995],[-75.1145405,39.2252051],[-75.1146251,39.2252662],[-75.1148954,39.2254613],[-75.1150771,39.2256543],[-75.115199,39.2258671],[-75.1152519,39.2260269],[-75.1152539,39.2260387],[-75.1152881,39.2262402],[-75.115272,39.2263604],[-75.1151527,39.2264544],[-75.1150974,39.2264835],[-75.1150503,39.2265083],[-75.114862,39.2265627],[-75.1147422,39.22659],[-75.1143304,39.2265788],[-75.1140212,39.2265271],[-75.1136079,39.2263425],[-75.113177,39.2261046],[-75.1126776,39.2258804],[-75.1123332,39.2257355],[-75.1122261,39.2257322],[-75.1119558,39.2257241],[-75.1114927,39.2257399],[-75.1111844,39.2257949],[-75.1108466,39.2258967],[-75.1105221,39.2260652],[-75.1101637,39.2262805],[-75.1098057,39.2265359],[-75.1096442,39.2267035],[-75.1095512,39.2268641],[-75.1095334,39.2269211],[-75.1095089,39.2269997],[-75.1094928,39.2270512],[-75.1094852,39.227158],[-75.1094953,39.227338],[-75.1095205,39.2274597],[-75.1095261,39.2274825],[-75.1095735,39.2276756],[-75.10962,39.2278165],[-75.1096835,39.2279352],[-75.109758,39.2280275],[-75.1098322,39.2280844],[-75.1099119,39.2281237],[-75.1100086,39.2281584],[-75.1101279,39.2281843],[-75.1103209,39.2282097],[-75.1104911,39.2282132],[-75.1106781,39.2282035],[-75.1109216,39.2281625],[-75.1111253,39.2281129],[-75.1113401,39.2280368],[-75.1115437,39.2279696],[-75.1117587,39.2279111],[-75.1120274,39.2278435],[-75.1124125,39.2277842],[-75.1126845,39.2277651],[-75.1129115,39.227786],[-75.1130706,39.227816],[-75.1131957,39.2278639],[-75.1133267,39.2279293],[-75.1134579,39.2280124],[-75.1135265,39.2280738],[-75.1135951,39.2281396],[-75.1136469,39.2282319],[-75.1136818,39.2283288],[-75.113694,39.2284302],[-75.1136836,39.2285405],[-75.1136561,39.2286421],[-75.1135835,39.2287659],[-75.113505,39.2288678],[-75.1134939,39.2288805],[-75.1133815,39.2290096],[-75.113289,39.2291336],[-75.1131209,39.2293682],[-75.1130151,39.2295849],[-75.1130046,39.2296153],[-75.1129542,39.2297616],[-75.1129439,39.2298807],[-75.112962,39.2299997],[-75.1130025,39.2301009],[-75.1130543,39.2301889],[-75.1131231,39.2302635],[-75.1131688,39.2303118],[-75.1133058,39.2304081],[-75.1134483,39.2304911],[-75.1136277,39.2305828],[-75.1140722,39.2308406],[-75.1143004,39.2309894],[-75.1144888,39.2311384],[-75.114626,39.2312655],[-75.1147063,39.2313666],[-75.1147639,39.2314677],[-75.1147819,39.2315779],[-75.1147769,39.2316573],[-75.1147661,39.2317235],[-75.1147326,39.231781],[-75.1146934,39.2318385],[-75.1146598,39.2318917],[-75.1145979,39.2319361],[-75.1145414,39.2319672],[-75.114468,39.2319985],[-75.1143433,39.2320124],[-75.114196,39.2320308],[-75.114094,39.2320358],[-75.1139125,39.2320323],[-75.1137308,39.2320024],[-75.1135547,39.231968],[-75.1133558,39.2319206],[-75.1131284,39.23186],[-75.1129324,39.2318125],[-75.1125176,39.2317221],[-75.1122506,39.2316706],[-75.1119839,39.2316455],[-75.1118023,39.2316288],[-75.1116662,39.2316295],[-75.1114792,39.2316438],[-75.1113149,39.2316667],[-75.1111565,39.2317072],[-75.1109926,39.2317786],[-75.1109081,39.231832],[-75.1107897,39.2319164],[-75.1107166,39.2319962],[-75.1106665,39.2320935],[-75.1106446,39.2321906],[-75.1106455,39.2322921],[-75.1106465,39.2324067],[-75.1106728,39.2324948],[-75.110725,39.2326312],[-75.1107654,39.2327148],[-75.1108285,39.2327983],[-75.1109144,39.2328904],[-75.1110232,39.2330134],[-75.1111606,39.2331626],[-75.111321,39.2333514],[-75.1113955,39.2334436],[-75.1114706,39.2335976],[-75.1115045,39.2336894],[-75.1115113,39.2337076],[-75.1115294,39.2338311],[-75.1115361,39.2339545],[-75.1115199,39.2340428],[-75.1114922,39.2341311],[-75.1114476,39.2342152],[-75.1113803,39.2343037],[-75.111296,39.234388],[-75.1111553,39.2345078],[-75.1110254,39.2345746],[-75.1108839,39.2346106],[-75.1107083,39.2346292],[-75.1105609,39.2346388],[-75.110368,39.234631],[-75.1102317,39.2346053],[-75.1101235,39.2345573],[-75.1100208,39.2344829],[-75.1099635,39.2344126],[-75.1099227,39.2342893],[-75.109887,39.234091],[-75.1098565,39.2338442],[-75.1098371,39.2335665],[-75.1098201,39.2332402],[-75.1097614,39.2330111],[-75.1096975,39.2328307],[-75.1096336,39.2326634],[-75.1095645,39.2325403],[-75.1094784,39.2324173],[-75.1093697,39.2323076],[-75.109261,39.2322023],[-75.1091412,39.2321191],[-75.1091282,39.2321119],[-75.1090159,39.2320492],[-75.1088279,39.2319531],[-75.1086344,39.2318748],[-75.108441,39.231814],[-75.108265,39.2317841],[-75.1080835,39.2317762],[-75.1079247,39.2317814],[-75.1078228,39.2317996],[-75.107738,39.2318353],[-75.107659,39.2318754],[-75.1075802,39.231942],[-75.1075327,39.232013],[-75.1075298,39.2320172],[-75.1074908,39.2320968],[-75.1074688,39.2321808],[-75.1074528,39.2322867],[-75.1074599,39.2324587],[-75.107481,39.2326041],[-75.1075519,39.2329389],[-75.1075997,39.2332121],[-75.1076191,39.2334899],[-75.1076036,39.2336708],[-75.1075651,39.2338077],[-75.1075093,39.2339138],[-75.1074475,39.2339847],[-75.107335,39.2340867],[-75.1072444,39.2341646],[-75.1072111,39.2341932],[-75.1070815,39.2342865],[-75.1069013,39.2344286],[-75.1068309,39.2344907],[-75.1067414,39.2346367],[-75.1066692,39.2348091],[-75.1066476,39.2349371],[-75.1066543,39.2350606],[-75.1066838,39.2351927],[-75.1067414,39.2352939],[-75.1068504,39.2354344],[-75.1069821,39.2355881],[-75.1071084,39.2357639],[-75.1072405,39.2359572],[-75.1073671,39.2361683],[-75.1074647,39.2363045],[-75.1072962,39.2363233],[-75.1071309,39.2363287],[-75.1069768,39.2363161],[-75.1068396,39.2362902],[-75.1066509,39.236238],[-75.1064221,39.2361549],[-75.1062076,39.236085],[-75.1059275,39.2360155],[-75.1055904,39.2359507],[-75.1053506,39.2359298],[-75.1051652,39.235918],[-75.1051566,39.2359175],[-75.1049913,39.2359361],[-75.1048319,39.2359724],[-75.1047181,39.2360085],[-75.1045761,39.2360758],[-75.1043717,39.2361877],[-75.1040823,39.2363622],[-75.1038217,39.2365632],[-75.1035357,39.2368042],[-75.1032301,39.2370853],[-75.1029981,39.2373127],[-75.1029719,39.2373416],[-75.1028399,39.2374865],[-75.102682,39.2376958],[-75.1026372,39.2377892],[-75.1026321,39.2378691],[-75.102639,39.2379425],[-75.102278,39.2380625],[-75.1021242,39.238122],[-75.1020131,39.2381787],[-75.1019544,39.2382199],[-75.1019089,39.2382711],[-75.1018865,39.2383453],[-75.1018837,39.2383938],[-75.1018975,39.2384703],[-75.1019243,39.2385365],[-75.1020004,39.2386101],[-75.1021192,39.238681],[-75.1022116,39.2387443],[-75.102291,39.2388128],[-75.1023209,39.2388586],[-75.1023443,39.2389096],[-75.1023613,39.2389784],[-75.1023556,39.2390703],[-75.1023398,39.2391418],[-75.1023173,39.2391981],[-75.1022783,39.2392443],[-75.1022358,39.2392726],[-75.1021802,39.2392856],[-75.102108,39.2392911],[-75.1020423,39.2392863],[-75.1020202,39.2392787],[-75.1019468,39.2392536],[-75.1018545,39.2392005],[-75.101762,39.2391295],[-75.1016579,39.2390535],[-75.1015952,39.2390104],[-75.1015491,39.2389902],[-75.1014734,39.2389728],[-75.1014012,39.2389706],[-75.1013323,39.2389786],[-75.1012636,39.2390019],[-75.1012113,39.2390252],[-75.1011624,39.2390662],[-75.1011235,39.2391201],[-75.1011075,39.2391737],[-75.1010984,39.2392606],[-75.1011091,39.2393626],[-75.101126,39.2394187],[-75.1011592,39.2394568],[-75.1011989,39.2394898],[-75.1012548,39.2395074],[-75.1013402,39.2395197],[-75.1014584,39.2395216],[-75.1015503,39.2395262],[-75.1016686,39.2395409],[-75.1017278,39.2395457],[-75.1017804,39.2395582],[-75.1018324,39.2395794],[-75.1018858,39.2396011],[-75.1019486,39.2396518],[-75.1019885,39.2397154],[-75.1020088,39.2397868],[-75.1019997,39.2398659],[-75.1019837,39.2399145],[-75.1019577,39.2399504],[-75.1019218,39.2399761],[-75.1018931,39.2399842],[-75.1018662,39.2399917],[-75.1017973,39.2399997],[-75.1017021,39.2400028],[-75.1015871,39.2399906],[-75.101495,39.2399681],[-75.1013407,39.2399587],[-75.1012225,39.2399542],[-75.1010814,39.23996],[-75.1009371,39.239971],[-75.1008583,39.2399714],[-75.1007992,39.2399615],[-75.1007202,39.2399389],[-75.1006674,39.2399086],[-75.1006442,39.2398806],[-75.1006275,39.2398424],[-75.1006103,39.2397506],[-75.1006025,39.2396077],[-75.1006047,39.2394877],[-75.1006001,39.2393269],[-75.1005926,39.2392198],[-75.1005756,39.2391484],[-75.1005554,39.2390949],[-75.1005123,39.2390441],[-75.1004595,39.2390061],[-75.1004068,39.2389859],[-75.1003378,39.2389761],[-75.1002673,39.2389815],[-75.1002247,39.238992],[-75.1001888,39.2390126],[-75.1001464,39.2390485],[-75.1000488,39.2391537],[-75.0999775,39.2392587],[-75.0998961,39.2393433],[-75.0998375,39.2393921],[-75.0997427,39.2394411],[-75.0997282,39.2394464],[-75.0996642,39.2394696],[-75.0995822,39.2394751],[-75.0995034,39.2394755],[-75.0994147,39.2394684],[-75.0993292,39.2394484],[-75.0992468,39.2394105],[-75.0991841,39.23937],[-75.0991247,39.2393218],[-75.0990848,39.2392659],[-75.0990479,39.2391741],[-75.0990342,39.2391053],[-75.0990168,39.2389931],[-75.0989964,39.238909],[-75.0989829,39.2388682],[-75.0989555,39.2388242],[-75.0989497,39.2388147],[-75.0989116,39.2387818],[-75.098872,39.2387539],[-75.0988227,39.2387414],[-75.0987471,39.2387316],[-75.0986552,39.238732],[-75.0985568,39.2387453],[-75.0984585,39.2387611],[-75.0983831,39.2387717],[-75.0983109,39.2387746],[-75.0982288,39.2387648],[-75.0981663,39.2387473],[-75.0981102,39.2387195],[-75.0980605,39.2386662],[-75.0980106,39.2385822],[-75.0979571,39.2384727],[-75.0979167,39.2383478],[-75.0979048,39.2382943],[-75.0978845,39.238228],[-75.0978579,39.2381899],[-75.0978248,39.238162],[-75.0977689,39.238147],[-75.0977131,39.2381447],[-75.0976443,39.2381527],[-75.0976017,39.2381708],[-75.0975724,39.2381965],[-75.0975401,39.2382579],[-75.0974982,39.2383398],[-75.0974661,39.2384344],[-75.0974339,39.2385086],[-75.0973983,39.2385573],[-75.0973591,39.2385906],[-75.0973232,39.2386087],[-75.0972641,39.2386116],[-75.0971787,39.2386018],[-75.0970996,39.2385664],[-75.0970106,39.238521],[-75.0969214,39.2384525],[-75.0968387,39.2383789],[-75.0967628,39.2383231],[-75.096687,39.2382904],[-75.0966016,39.2382857],[-75.0964934,39.2382964],[-75.0964361,39.2383095],[-75.0963674,39.2383379],[-75.0963019,39.2383612],[-75.0962492,39.2383723],[-75.0962853,39.2386048],[-75.0962946,39.2386627],[-75.096295,39.2387109],[-75.0962884,39.2387702],[-75.0962696,39.2388502],[-75.0962331,39.2389372],[-75.0961913,39.2390215],[-75.0961705,39.2390767],[-75.096155,39.2391237],[-75.0961501,39.2391733],[-75.0961521,39.2392091],[-75.0961577,39.2392449],[-75.0961711,39.2392654],[-75.0960996,39.2392593],[-75.0960775,39.2392525],[-75.0960378,39.2392407],[-75.0959759,39.2392137],[-75.0959186,39.2391968],[-75.0958458,39.2391818],[-75.0957685,39.2391599],[-75.0957133,39.2391431],[-75.095636,39.2391075],[-75.095574,39.2390668],[-75.0955451,39.2390327],[-75.0955338,39.2390002],[-75.0955329,39.2389865],[-75.0955134,39.2389353],[-75.0955174,39.2388804],[-75.095541,39.2388118],[-75.0955954,39.2387345],[-75.0957374,39.2386071],[-75.0958685,39.2384917],[-75.0959057,39.2384624],[-75.0960075,39.2383226],[-75.095993,39.2383143],[-75.0959105,39.2382637],[-75.095851,39.2382104],[-75.0957882,39.2381622],[-75.0957387,39.2381242],[-75.0956926,39.2381066],[-75.0955971,39.2380764],[-75.0955249,39.2380691],[-75.0953871,39.2380749],[-75.0952688,39.2380679],[-75.0951472,39.2380506],[-75.0950469,39.2380205],[-75.0949514,39.2379904],[-75.0948889,39.2379677],[-75.0948001,39.2379503],[-75.0947344,39.237943],[-75.0946688,39.2379408],[-75.0945802,39.2379489],[-75.0945147,39.2379645],[-75.0944427,39.2379904],[-75.0943219,39.2380625],[-75.0941652,39.2381629],[-75.0939953,39.2382582],[-75.0938058,39.2383561],[-75.0936603,39.2384232],[-75.0935163,39.2384827],[-75.0933986,39.2385292],[-75.0933233,39.2385551],[-75.0932545,39.2385733],[-75.0931562,39.2385866],[-75.0930544,39.2385871],[-75.0929395,39.23858],[-75.0928766,39.2385717],[-75.0928475,39.2385678],[-75.0928159,39.2385633],[-75.0927423,39.238553],[-75.0926537,39.2385534],[-75.0925816,39.2385665],[-75.0925748,39.2385687],[-75.0925145,39.2385873],[-75.0924622,39.2386106],[-75.0923348,39.2386801],[-75.0922662,39.2387264],[-75.0922139,39.2387548],[-75.0921616,39.2387703],[-75.0921156,39.2387757],[-75.0920961,39.2387742],[-75.0920499,39.2387709],[-75.0920006,39.2387533],[-75.0919445,39.2387178],[-75.0918883,39.2386722],[-75.0918187,39.2385934],[-75.091759,39.238512],[-75.0917024,39.238423],[-75.0916425,39.2383288],[-75.0916108,39.2382787],[-75.0915926,39.23825],[-75.0915561,39.2382042],[-75.0915065,39.2381611],[-75.0914472,39.2381282],[-75.0913814,39.2381081],[-75.0912861,39.2380984],[-75.0911516,39.2381093],[-75.0910534,39.2381353],[-75.0908718,39.2382026],[-75.0907343,39.2382492],[-75.0906132,39.2382907],[-75.0905215,39.2383141],[-75.0904493,39.2383196],[-75.0903443,39.2383124],[-75.0902554,39.2382899],[-75.0901895,39.2382571],[-75.0901235,39.2382166],[-75.090041,39.2381634],[-75.0899718,39.2381306],[-75.0898962,39.238108],[-75.0897811,39.238083],[-75.0896415,39.238071],[-75.0894807,39.2380769],[-75.0894798,39.2380768],[-75.0893559,39.2380699],[-75.0892771,39.2380626],[-75.0892014,39.2380477],[-75.089185,39.2380416],[-75.0891126,39.238015],[-75.0890746,39.2379947],[-75.0890367,39.2379745],[-75.0889542,39.2379213],[-75.0888652,39.2378682],[-75.0887829,39.2378405],[-75.0886776,39.237813],[-75.0885823,39.2378032],[-75.0884806,39.2378037],[-75.0883184,39.2378301],[-75.0881611,39.2378615],[-75.0880562,39.237885],[-75.0879513,39.2379034],[-75.0878661,39.237909],[-75.0878585,39.237909],[-75.0878004,39.2379093],[-75.0877315,39.2379045],[-75.0876591,39.2378845],[-75.0876129,39.2378592],[-75.0875568,39.2378161],[-75.0874973,39.2377628],[-75.0874373,39.2376661],[-75.0873906,39.2375719],[-75.0873536,39.2374649],[-75.08732,39.2373706],[-75.0872734,39.2372866],[-75.0872005,39.2372078],[-75.0871359,39.2371393],[-75.0870798,39.2371012],[-75.0870074,39.2370812],[-75.0869122,39.2370765],[-75.0868696,39.2370854],[-75.0868369,39.2370922],[-75.0867321,39.2371234],[-75.086634,39.2371673],[-75.086549,39.237206],[-75.0864638,39.237232],[-75.0863852,39.2372477],[-75.0863097,39.2372506],[-75.0862506,39.2372432],[-75.0861782,39.2372155],[-75.0861056,39.2371699],[-75.0860395,39.2371141],[-75.0859765,39.237043],[-75.0859037,39.2369744],[-75.0858376,39.2369186],[-75.0857651,39.2368781],[-75.0857563,39.2368761],[-75.085701,39.2368631],[-75.0856386,39.2368635],[-75.085596,39.2368764],[-75.0855503,39.2369047],[-75.0854916,39.2369484],[-75.0854136,39.2370381],[-75.0853585,39.2371278],[-75.0853567,39.2371309],[-75.0852938,39.2372404],[-75.0852454,39.2373427],[-75.0852264,39.2374271],[-75.0852042,39.2375191],[-75.0851919,39.237611],[-75.0851827,39.2376876],[-75.0851649,39.237726],[-75.0851357,39.2377695],[-75.0851022,39.2377943],[-75.0850835,39.2378081],[-75.0850116,39.2378467],[-75.0848775,39.2378934],[-75.0847408,39.2379213],[-75.0847366,39.2379222],[-75.0846088,39.2379509],[-75.0844679,39.2379745],[-75.0843367,39.2379905],[-75.084212,39.237986],[-75.084133,39.2379829],[-75.0839854,39.237977],[-75.0838475,39.2379643],[-75.0838015,39.23796],[-75.0836111,39.237961],[-75.0834355,39.2379567],[-75.083245,39.2379526],[-75.0831335,39.2379582],[-75.0830516,39.2379765],[-75.0829764,39.2380076],[-75.0828948,39.2380616],[-75.0827448,39.2381823],[-75.0826828,39.2382311],[-75.0826012,39.23828],[-75.0824769,39.2383368],[-75.0823165,39.2383835],[-75.0821739,39.2384149],[-75.0820495,39.2384538],[-75.0819546,39.2384874],[-75.0818762,39.2385337],[-75.0818371,39.2385595],[-75.081798,39.2386031],[-75.0817626,39.2386747],[-75.0817237,39.2387438],[-75.0816847,39.2387925],[-75.0816456,39.2388284],[-75.0816031,39.2388491],[-75.0815638,39.2388595],[-75.0815113,39.2388623],[-75.081439,39.2388499],[-75.0813666,39.2388221],[-75.0813105,39.2387816],[-75.0812576,39.2387436],[-75.0812082,39.2387183],[-75.0811259,39.2386906],[-75.0809909,39.2386454],[-75.0808708,39.2386077],[-75.0808018,39.2385927],[-75.0807461,39.2385843],[-75.0807361,39.2385828],[-75.0806375,39.2385705],[-75.0805818,39.2385785],[-75.080536,39.2385991],[-75.0805067,39.2386299],[-75.0804874,39.2386785],[-75.0804748,39.2387424],[-75.0804655,39.2388088],[-75.0804528,39.2388676],[-75.0804433,39.2389033],[-75.0804271,39.2389289],[-75.0803977,39.2389495],[-75.0803584,39.2389599],[-75.0803125,39.2389601],[-75.0802599,39.2389553],[-75.0802139,39.2389453],[-75.0801743,39.23892],[-75.0801479,39.2388972],[-75.0801114,39.2388565],[-75.0800847,39.2388056],[-75.0800677,39.2387342],[-75.0800507,39.2386577],[-75.0800438,39.2386144],[-75.0800303,39.2385761],[-75.0800104,39.2385482],[-75.0800031,39.238542],[-75.0799807,39.2385228],[-75.079951,39.2385127],[-75.0798886,39.2385054],[-75.0798263,39.2385108],[-75.0797936,39.2385288],[-75.0797414,39.2385623],[-75.0797188,39.2385812],[-75.0796892,39.2386059],[-75.0796601,39.2386545],[-75.0796377,39.2387261],[-75.0796284,39.23879],[-75.0796424,39.2388997],[-75.0796627,39.2389685],[-75.0796878,39.2390347],[-75.0797046,39.2390755],[-75.0797115,39.2391214],[-75.0797085,39.2391597],[-75.0796859,39.2392032],[-75.0796501,39.2392366],[-75.079588,39.2392726],[-75.0795062,39.2393037],[-75.0793916,39.2393374],[-75.0793,39.2393761],[-75.0791954,39.2394201],[-75.0790843,39.2394819],[-75.0790105,39.2395303],[-75.0789667,39.239559],[-75.0788753,39.2396156],[-75.0788101,39.2396721],[-75.0787927,39.2397057],[-75.0787851,39.2397394],[-75.0787874,39.2397808],[-75.0787916,39.2398113],[-75.0788175,39.239851],[-75.0788632,39.2399044],[-75.0789267,39.2399653],[-75.0789565,39.2399942],[-75.0789804,39.2400263],[-75.0789885,39.2400507],[-75.0789907,39.2400829],[-75.0789832,39.2401212],[-75.0789735,39.2401457],[-75.0789481,39.2401734],[-75.0789208,39.240198],[-75.0788855,39.2402166],[-75.0788364,39.2402352],[-75.0787775,39.2402477],[-75.0787185,39.2402542],[-75.0786555,39.240256],[-75.0785905,39.2402517],[-75.0785196,39.2402459],[-75.0784822,39.2402507],[-75.0784468,39.2402601],[-75.0783979,39.2402894],[-75.0783735,39.240311],[-75.0783344,39.2403525],[-75.0783091,39.2403849],[-75.0782876,39.2404124],[-75.0782564,39.2404493],[-75.0782252,39.2404816],[-75.0781959,39.2405078],[-75.0781646,39.2405263],[-75.0781498,39.2405302],[-75.0781292,39.2405357],[-75.07808,39.240542],[-75.0780328,39.2405484],[-75.0779955,39.2405547],[-75.0779582,39.240561],[-75.0779287,39.2405765],[-75.0778935,39.2405981],[-75.0778642,39.2406258],[-75.077833,39.2406719],[-75.0777981,39.2407272],[-75.0777729,39.2407747],[-75.0777594,39.2408162],[-75.07775,39.2408652],[-75.0777503,39.2408988],[-75.0777526,39.2409478],[-75.0777569,39.2409891],[-75.0777558,39.2410214],[-75.0777553,39.2410351],[-75.077738,39.2410872],[-75.0777216,39.2411256],[-75.0777002,39.2411609],[-75.0776729,39.241184],[-75.0776357,39.2412102],[-75.0775906,39.2412334],[-75.0775297,39.2412566],[-75.0774649,39.2412753],[-75.0774178,39.2412939],[-75.0773898,39.2413105],[-75.0773787,39.2413171],[-75.0773513,39.2413417],[-75.077322,39.2413771],[-75.0773007,39.2414078],[-75.0772872,39.2414431],[-75.0772776,39.2414799],[-75.0772799,39.2415196],[-75.0772942,39.2415747],[-75.0773223,39.241645],[-75.0773615,39.2417428],[-75.0773755,39.2417687],[-75.0773954,39.2417977],[-75.0774133,39.2418236],[-75.0774273,39.241845],[-75.0774334,39.2418664],[-75.0774336,39.2418986],[-75.0774282,39.2419506],[-75.0774147,39.2419951],[-75.0773934,39.242035],[-75.0773759,39.2420565],[-75.0773602,39.2420658],[-75.0773425,39.2420705],[-75.0773208,39.2420706],[-75.0773011,39.2420645],[-75.0772655,39.2420433],[-75.0772358,39.242022],[-75.0771982,39.2419992],[-75.0771745,39.2419886],[-75.0771489,39.2419872],[-75.0771194,39.241992],[-75.0770802,39.2420075],[-75.0770311,39.2420322],[-75.0769959,39.2420584],[-75.0769627,39.2420861],[-75.0769393,39.2421153],[-75.0769317,39.242149],[-75.0769282,39.2421996],[-75.0769287,39.2422654],[-75.0769257,39.2423022],[-75.07692,39.2423221],[-75.0769108,39.2423338],[-75.0769004,39.2423411],[-75.0768889,39.2423448],[-75.0768761,39.2423448],[-75.0768482,39.2423342],[-75.0768121,39.2423181],[-75.0767889,39.242311],[-75.0767633,39.2423084],[-75.0767436,39.2423094],[-75.0767309,39.2423131],[-75.0767147,39.2423222],[-75.0766998,39.2423376],[-75.0766826,39.2423656],[-75.0766644,39.2424018],[-75.0766449,39.2424271],[-75.0766241,39.2424426],[-75.0766045,39.2424499],[-75.0765871,39.2424527],[-75.0765662,39.2424528],[-75.0765464,39.2424457],[-75.0765243,39.2424305],[-75.0765068,39.2424152],[-75.0764799,39.2423964],[-75.0764403,39.2423741],[-75.0764194,39.242366],[-75.0763822,39.2423554],[-75.0763601,39.2423537],[-75.0763288,39.2423566],[-75.0763057,39.2423612],[-75.0762918,39.2423685],[-75.076278,39.2423802],[-75.07627,39.2423956],[-75.076261,39.2424299],[-75.0762487,39.2424823],[-75.0762375,39.2425347],[-75.0762302,39.2425554],[-75.076221,39.2425753],[-75.0762096,39.242588],[-75.0761934,39.2425971],[-75.0761772,39.2426026],[-75.0761587,39.2426036],[-75.0761204,39.242602],[-75.0760902,39.2425949],[-75.0760611,39.242586],[-75.0760425,39.2425816],[-75.0760251,39.2425799],[-75.0760019,39.2425836],[-75.075988,39.2425909],[-75.0759742,39.2426036],[-75.0759651,39.2426235],[-75.0759609,39.2426704],[-75.0759553,39.2427029],[-75.0759474,39.242721],[-75.0759371,39.2427346],[-75.0759232,39.2427481],[-75.0759065,39.2427545],[-75.0758833,39.2427573],[-75.0758497,39.2427557],[-75.0758044,39.2427505],[-75.0757591,39.2427418],[-75.0757324,39.2427365],[-75.0757103,39.242733],[-75.0756871,39.2427331],[-75.0756628,39.2427377],[-75.0756455,39.2427486],[-75.0756386,39.2427577],[-75.0756353,39.2427757],[-75.0756354,39.2427929],[-75.0756379,39.2428082],[-75.0756427,39.2428316],[-75.0756452,39.2428514],[-75.0756418,39.2428695],[-75.0756361,39.2428785],[-75.0756257,39.242884],[-75.0756118,39.2428859],[-75.0755921,39.2428814],[-75.0755699,39.242868],[-75.075549,39.2428582],[-75.075535,39.2428547],[-75.0755141,39.2428521],[-75.0754956,39.2428549],[-75.0754852,39.2428594],[-75.0754725,39.2428658],[-75.075461,39.242883],[-75.075459,39.242911],[-75.0754569,39.2429453],[-75.0754548,39.2429714],[-75.0754503,39.2429867],[-75.0754428,39.2429958],[-75.0754371,39.2430022],[-75.0754279,39.2430067],[-75.0754186,39.2430077],[-75.0754023,39.2430068],[-75.0753849,39.2429988],[-75.0753627,39.2429854],[-75.0753394,39.2429729],[-75.075322,39.2429667],[-75.0753011,39.2429658],[-75.0752826,39.2429678],[-75.0752687,39.2429723],[-75.075256,39.2429814],[-75.0752526,39.242994],[-75.0752562,39.2430093],[-75.0752621,39.2430219],[-75.075275,39.2430417],[-75.0752868,39.2430606],[-75.0752904,39.243075],[-75.0752917,39.2430876],[-75.0752872,39.2431039],[-75.0752768,39.2431112],[-75.0752641,39.2431166],[-75.0752455,39.2431194],[-75.0752131,39.2431169],[-75.0751898,39.2431125],[-75.0751666,39.243109],[-75.0751434,39.2431109],[-75.0751098,39.2431192],[-75.07503,39.2431376],[-75.0749657,39.243156],[-75.0749056,39.2431707],[-75.0748836,39.2431762],[-75.074857,39.2431854],[-75.0748408,39.2431954],[-75.074827,39.2432099],[-75.0748203,39.2432333],[-75.0748124,39.2432659],[-75.0747977,39.2433056],[-75.0747805,39.2433346],[-75.0747668,39.2433572],[-75.0747472,39.2433708],[-75.0747333,39.2433772],[-75.0747136,39.2433791],[-75.0746881,39.2433756],[-75.0746671,39.2433676],[-75.0746496,39.2433568],[-75.0746351,39.2433524],[-75.0746189,39.2433525],[-75.0746027,39.2433553],[-75.074583,39.2433653],[-75.0745623,39.2433825],[-75.0745358,39.2434079],[-75.0745163,39.2434269],[-75.0745002,39.2434496],[-75.0744795,39.2434731],[-75.0744634,39.2434858],[-75.0744461,39.2434958],[-75.0744275,39.2434977],[-75.0744032,39.2434951],[-75.0743718,39.2434881],[-75.0743427,39.2434801],[-75.0743021,39.2434677],[-75.0742788,39.2434606],[-75.0742625,39.2434561],[-75.0742486,39.2434553],[-75.0742312,39.2434599],[-75.0742128,39.2434726],[-75.0742025,39.2434925],[-75.0741922,39.2435151],[-75.0741843,39.2435314],[-75.0741728,39.2435432],[-75.0741497,39.2435559],[-75.0741318,39.2435659],[-75.0741191,39.2435759],[-75.0741134,39.2435876],[-75.0741135,39.2435976],[-75.0741147,39.2436093],[-75.0741229,39.243621],[-75.0741381,39.2436326],[-75.0741521,39.2436397],[-75.074173,39.2436514],[-75.0741836,39.2436667],[-75.0741895,39.2436819],[-75.074185,39.2436973],[-75.0741794,39.2437099],[-75.0741667,39.2437199],[-75.0741481,39.2437236],[-75.0741261,39.2437201],[-75.0741052,39.2437139],[-75.0740865,39.2437077],[-75.0740494,39.2437052],[-75.0740274,39.2437107],[-75.0740078,39.2437216],[-75.074005,39.2437343],[-75.0740063,39.2437496],[-75.074011,39.2437613],[-75.0740215,39.2437684],[-75.0740367,39.2437738],[-75.0740576,39.2437845],[-75.0740635,39.2437908],[-75.074067,39.2438034],[-75.0740637,39.243816],[-75.0740499,39.2438323],[-75.0740268,39.2438496],[-75.0739865,39.2438759],[-75.0739646,39.2438923],[-75.073945,39.2439131],[-75.0739105,39.2439475],[-75.0738748,39.2439793],[-75.0738546,39.2439947],[-75.0738454,39.2440056],[-75.0738409,39.24402],[-75.0738422,39.2440335],[-75.0738469,39.2440416],[-75.0738574,39.2440497],[-75.0738749,39.2440614],[-75.0738854,39.2440712],[-75.0738901,39.2440775],[-75.0738925,39.2440883],[-75.0738926,39.2441055],[-75.0738881,39.2441199],[-75.0738778,39.2441317],[-75.0738559,39.2441507],[-75.0738467,39.2441652],[-75.0738411,39.2441824],[-75.0738424,39.2442013],[-75.0738378,39.2442148],[-75.073824,39.2442275],[-75.0738079,39.2442348],[-75.0737871,39.2442494],[-75.073771,39.2442666],[-75.0737573,39.2442865],[-75.0737435,39.2443037],[-75.0737273,39.244311],[-75.0736984,39.2443165],[-75.0736694,39.2443203],[-75.0736393,39.2443267],[-75.0736139,39.2443332],[-75.0735711,39.2443532],[-75.0735284,39.244376],[-75.0735218,39.244379],[-75.0651907,39.2536094],[-75.0653666,39.2675672],[-75.0006301,39.2661608]]]}}
